OBJECT_NAME,OBJECT_ID,EPOCH,MEAN_MOTION,ECCENTRICITY,INCLINATION,RA_OF_ASC_NODE,ARG_OF_PERICENTER,MEAN_ANOMALY,EPHEMERIS_TYPE,CLASSIFICATION_TYPE,NORAD_CAT_ID,ELEMENT_SET_NO,REV_AT_EPOCH,BSTAR,MEAN_MOTION_DOT,MEAN_MOTION_DDOT
KUIPER-00113,2025-228B,2026-06-06T04:45:58.228704,14.79936361,.00005079,51.8996,324.1940,119.1809,240.9205,0,U,65948,999,3640,.35314351E-3,.2472E-4,0
KUIPER-00117,2025-228C,2026-06-05T05:12:03.636000,14.79933501,.0000617,51.8981,331.0359,129.7473,230.3544,0,U,65949,999,3622,.14064E-3,.851E-5,0
KUIPER-00121,2025-228D,2026-06-05T04:31:12.943200,14.79930192,.0000618,51.8995,326.1679,127.0456,233.0562,0,U,65950,999,3629,.14206E-3,.862E-5,0
KUIPER-00122,2025-228E,2026-06-06T04:34:18.048288,14.79938621,.00004765,51.9001,331.7119,92.7776,267.3241,0,U,65951,999,3630,.31812833E-3,.2205E-4,0
KUIPER-00123,2025-228F,2026-06-06T05:22:56.317152,14.79932710,.00005584,51.8991,331.5782,102.3425,257.7600,0,U,65952,999,3630,.64894572E-4,.274E-5,0
KUIPER-00124,2025-228G,2026-06-05T05:15:56.726784,14.79930445,.0000753,51.8994,328.5099,117.7965,242.3074,0,U,65953,999,3626,.47904E-4,.144E-5,0
KUIPER-00125,2025-228H,2026-06-06T02:43:24.506976,14.79931858,.00007637,51.9015,309.5956,100.5545,259.5503,0,U,65954,999,3660,.1237313E-3,.722E-5,0
KUIPER-00126,2025-228J,2026-06-06T04:38:11.956416,14.79932527,.00007504,51.8995,329.2326,99.1003,261.0044,0,U,65955,999,3633,.11834846E-3,.681E-5,0
KUIPER-00127,2025-228K,2026-06-06T04:25:33.284064,14.79928776,.00007394,51.9015,321.7363,114.4414,245.6625,0,U,65956,999,3644,.7358529E-4,.34E-5,0
KUIPER-00128,2025-228L,2026-06-06T04:01:13.944864,14.79933888,.0000459,51.8988,321.8738,118.5068,241.5941,0,U,65957,999,3643,.16038151E-3,.1002E-4,0
KUIPER-00129,2025-228M,2026-06-06T03:20:19.737312,14.79917350,.00004998,51.9014,316.9825,93.0659,267.0361,0,U,65958,999,3650,.85519746E-4,.431E-5,0
KUIPER-00130,2025-228N,2026-06-06T04:05:06.963936,14.79941629,.00005861,51.9038,319.3718,111.4592,248.6433,0,U,65959,999,2676,.3800847E-3,.2678E-4,0
KUIPER-00134,2025-228P,2026-06-06T11:56:46.474368,15.41077335,.00057492,51.8712,249.3188,277.8139,82.2196,0,U,65960,999,3747,.13870212E-2,.5834E-3,0
KUIPER-00135,2025-228Q,2026-06-06T03:16:30.775584,14.79939840,.00005481,51.9037,319.5773,123.5428,236.5587,0,U,65961,999,3646,.37897639E-3,.267E-4,0
KUIPER-00136,2025-228R,2026-06-06T04:08:59.176896,14.79927852,.00005905,51.9012,316.8754,93.7219,266.3811,0,U,65962,999,3650,.23177305E-3,.1546E-4,0
KUIPER-00137,2025-228S,2026-06-06T04:12:53.163648,14.79936845,.00003965,51.9048,314.3506,113.2399,246.8606,0,U,65963,999,3654,.23970396E-3,.1607E-4,0
KUIPER-00138,2025-228T,2026-06-06T03:28:08.624064,14.79933619,.00003975,51.9005,311.9331,104.1970,255.9037,0,U,65964,999,3657,.16829452E-3,.1062E-4,0
KUIPER-00140,2025-228U,2026-06-06T03:24:15.676704,14.79941106,.00005785,51.9000,314.5325,85.6624,274.4404,0,U,65965,999,3653,.37844386E-3,.2666E-4,0
KUIPER-00141,2025-228V,2026-06-06T03:31:50.503584,14.79821933,.00004842,51.9034,309.5496,54.8610,305.2398,0,U,65966,999,3660,.59278715E-3,.4289E-4,0
KUIPER-00146,2025-228W,2026-06-05T16:56:05.431488,14.79931847,.00006138,51.9027,314.0108,139.9066,220.1942,0,U,65967,999,3650,.15822812E-3,.985E-5,0
KUIPER-00149,2025-228X,2026-06-06T03:35:54.753792,14.79933429,.00006219,51.9014,306.9399,86.3537,273.7497,0,U,65968,999,3664,.22186805E-3,.1471E-4,0
KUIPER-00154,2025-228Y,2026-06-06T15:49:07.368384,14.79927706,.00004719,51.9001,302.1828,87.0214,273.0802,0,U,65969,999,3675,-.6150127E-5,-.268E-5,0
KUIPER-00157,2025-228Z,2026-06-06T02:47:18.509280,14.79937913,.00005233,51.9022,307.2139,109.5943,250.5076,0,U,65970,999,3663,.29489497E-3,.2028E-4,0
STRIX-5,2025-229A,2026-06-06T05:08:41.854848,15.04324471,.0037678,41.9287,348.2351,338.5100,21.4143,0,U,65971,999,3532,.44451989E-3,.6208E-4,0
SDA_1664,2025-230A,2026-06-06T04:40:41.142432,13.79686850,.00008693,81.2995,222.4144,86.2684,273.8569,0,U,65974,999,3225,.11598617E-3,.131E-5,0
SDA_1665,2025-230B,2026-06-06T12:16:55.669152,13.82044410,.00013511,81.3012,221.7857,102.3807,257.7500,0,U,65975,999,3232,.14437894E-3,.167E-5,0
SDA_1666,2025-230C,2026-06-06T12:55:27.391872,13.82496533,.00010096,81.2992,221.7593,106.8685,253.2581,0,U,65976,999,3232,-.89666962E-2,-.9681E-4,0
SDA_1667,2025-230D,2026-06-06T12:39:04.306752,13.81463876,.00013883,81.2996,221.8931,93.4005,266.7309,0,U,65977,999,3231,.18472055E-3,.208E-5,0
SDA_1668,2025-230E,2026-06-06T13:19:08.132736,13.85087002,.0002177,81.2996,221.3327,230.9885,129.1079,0,U,65978,999,3235,-.13781618E-1,-.1555E-3,0
SDA_1669,2025-230F,2026-06-04T05:05:19.745376,13.84834183,.00048632,81.3105,223.6178,184.7952,175.3160,0,U,65979,999,3202,-.24488756E-2,-.2746E-4,0
