KUIPER-00113            
1 65948U 25228B   26157.19859061  .00002472  00000+0  35314-3 0  9994
2 65948  51.8996 324.1940 0000507 119.1809 240.9205 14.79936361 36400
KUIPER-00117            
1 65949U 25228C   26156.21670875  .00000851  00000+0  14064-3 0  9999
2 65949  51.8981 331.0359 0000617 129.7473 230.3544 14.79933501 36224
KUIPER-00121            
1 65950U 25228D   26156.18834425  .00000862  00000+0  14206-3 0  9990
2 65950  51.8995 326.1679 0000618 127.0456 233.0562 14.79930192 36294
KUIPER-00122            
1 65951U 25228E   26157.19048667  .00002205  00000+0  31813-3 0  9994
2 65951  51.9001 331.7119 0000476  92.7776 267.3241 14.79938621 36301
KUIPER-00123            
1 65952U 25228F   26157.22426293  .00000274  00000+0  64895-4 0  9995
2 65952  51.8991 331.5782 0000558 102.3425 257.7600 14.79932710 36308
KUIPER-00124            
1 65953U 25228G   26156.21940656  .00000144  00000+0  47904-4 0  9996
2 65953  51.8994 328.5099 0000753 117.7965 242.3074 14.79930445 36268
KUIPER-00125            
1 65954U 25228H   26157.11347809  .00000722  00000+0  12373-3 0  9991
2 65954  51.9015 309.5956 0000763 100.5545 259.5503 14.79931858 36604
KUIPER-00126            
1 65955U 25228J   26157.19319394  .00000681  00000+0  11835-3 0  9994
2 65955  51.8995 329.2326 0000750  99.1003 261.0044 14.79932527 36331
KUIPER-00127            
1 65956U 25228K   26157.18441301  .00000340  00000+0  73585-4 0  9991
2 65956  51.9015 321.7363 0000739 114.4414 245.6625 14.79928776 36444
KUIPER-00128            
1 65957U 25228L   26157.16752251  .00001002  00000+0  16038-3 0  9994
2 65957  51.8988 321.8738 0000459 118.5068 241.5941 14.79933888 36434
KUIPER-00129            
1 65958U 25228M   26157.13911733  .00000431  00000+0  85520-4 0  9992
2 65958  51.9014 316.9825 0000499  93.0659 267.0361 14.79917350 36508
KUIPER-00130            
1 65959U 25228N   26157.17021949  .00002678  00000+0  38008-3 0  9991
2 65959  51.9038 319.3718 0000586 111.4592 248.6433 14.79941629 26769
KUIPER-00134            
1 65960U 25228P   26157.49776012  .00058340  00000+0  13870-2 0  9992
2 65960  51.8712 249.3188 0005749 277.8139  82.2196 15.41077335 37474
KUIPER-00135            
1 65961U 25228Q   26157.13646731  .00002670  00000+0  37898-3 0  9990
2 65961  51.9037 319.5773 0000548 123.5428 236.5587 14.79939840 36460
KUIPER-00136            
1 65962U 25228R   26157.17290714  .00001546  00000+0  23177-3 0  9997
2 65962  51.9012 316.8754 0000590  93.7219 266.3811 14.79927852 36502
KUIPER-00137            
1 65963U 25228S   26157.17561532  .00001607  00000+0  23970-3 0  9996
2 65963  51.9048 314.3506 0000396 113.2399 246.8606 14.79936845 36542
KUIPER-00138            
1 65964U 25228T   26157.14454426  .00001062  00000+0  16829-3 0  9997
2 65964  51.9005 311.9331 0000397 104.1970 255.9037 14.79933619 36578
KUIPER-00140            
1 65965U 25228U   26157.14184811  .00002666  00000+0  37844-3 0  9997
2 65965  51.9000 314.5325 0000578  85.6624 274.4404 14.79941106 36536
KUIPER-00141            
1 65966U 25228V   26157.14711231  .00004289  00000+0  59279-3 0  9999
2 65966  51.9034 309.5496 0000484  54.8610 305.2398 14.79821933 36604
KUIPER-00146            
1 65967U 25228W   26156.70561842  .00000985  00000+0  15823-3 0  9998
2 65967  51.9027 314.0108 0000613 139.9066 220.1942 14.79931847 36507
KUIPER-00149            
1 65968U 25228X   26157.14993928  .00001471  00000+0  22187-3 0  9994
2 65968  51.9014 306.9399 0000621  86.3537 273.7497 14.79933429 36645
KUIPER-00154            
1 65969U 25228Y   26157.65911306 -.00000268  00000+0 -61501-5 0  9991
2 65969  51.9001 302.1828 0000471  87.0214 273.0802 14.79927706 36756
KUIPER-00157            
1 65970U 25228Z   26157.11618645  .00002028  00000+0  29489-3 0  9995
2 65970  51.9022 307.2139 0000523 109.5943 250.5076 14.79937913 36630
STRIX-5                 
1 65971U 25229A   26157.21437332  .00006208  00000+0  44452-3 0  9991
2 65971  41.9287 348.2351 0037678 338.5100  21.4143 15.04324471 35327
SDA_1664                
1 65974U 25230A   26157.19492063  .00000131  00000+0  11599-3 0  9990
2 65974  81.2995 222.4144 0000869  86.2684 273.8569 13.79686850 32258
SDA_1665                
1 65975U 25230B   26157.51175543  .00000167  00000+0  14438-3 0  9992
2 65975  81.3012 221.7857 0001351 102.3807 257.7500 13.82044410 32325
SDA_1666                
1 65976U 25230C   26157.53851148 -.00009681  00000+0 -89667-2 0  9994
2 65976  81.2992 221.7593 0001009 106.8685 253.2581 13.82496533 32329
SDA_1667                
1 65977U 25230D   26157.52713318  .00000208  00000+0  18472-3 0  9991
2 65977  81.2996 221.8931 0001388  93.4005 266.7309 13.81463876 32317
SDA_1668                
1 65978U 25230E   26157.55495524 -.00015550  00000+0 -13782-1 0  9996
2 65978  81.2996 221.3327 0002177 230.9885 129.1079 13.85087002 32350
SDA_1669                
1 65979U 25230F   26155.21203409 -.00002746  00000+0 -24489-2 0  9997
2 65979  81.3105 223.6178 0004863 184.7952 175.3160 13.84834183 32025
